[{"OBJECT_NAME":"FENGYUN 1C DEB","OBJECT_ID":"1999-025CSE","EPOCH":"2026-02-16T10:30:25.425792","MEAN_MOTION":14.38278102,"ECCENTRICITY":0.00662936,"INCLINATION":98.2693,"RA_OF_ASC_NODE":48.1096,"ARG_OF_PERICENTER":337.8454,"MEAN_ANOMALY":21.9872,"EPHEMERIS_TYPE":0,"CLASSIFICATION_TYPE":"U","NORAD_CAT_ID":32136,"ELEMENT_SET_NO":999,"REV_AT_EPOCH":66034,"BSTAR":0.00067652225,"MEAN_MOTION_DOT":2.068e-5,"MEAN_MOTION_DDOT":0},{"OBJECT_NAME":"FENGYUN 1C DEB","OBJECT_ID":"1999-025CSF","EPOCH":"2026-03-01T03:39:31.293792","MEAN_MOTION":14.83392622,"ECCENTRICITY":0.01819013,"INCLINATION":98.4457,"RA_OF_ASC_NODE":196.7471,"ARG_OF_PERICENTER":142.2182,"MEAN_ANOMALY":219.1964,"EPHEMERIS_TYPE":0,"CLASSIFICATION_TYPE":"U","NORAD_CAT_ID":32137,"ELEMENT_SET_NO":999,"REV_AT_EPOCH":67892,"BSTAR":0.0017815966,"MEAN_MOTION_DOT":0.00019572,"MEAN_MOTION_DDOT":0},{"OBJECT_NAME":"FENGYUN 1C DEB","OBJECT_ID":"1999-025CSK","EPOCH":"2026-02-04T19:26:10.407552","MEAN_MOTION":14.03663111,"ECCENTRICITY":0.00746821,"INCLINATION":98.7453,"RA_OF_ASC_NODE":41.1414,"ARG_OF_PERICENTER":57.0391,"MEAN_ANOMALY":303.7929,"EPHEMERIS_TYPE":0,"CLASSIFICATION_TYPE":"U","NORAD_CAT_ID":32141,"ELEMENT_SET_NO":999,"REV_AT_EPOCH":95702,"BSTAR":0.00065799131,"MEAN_MOTION_DOT":1.018e-5,"MEAN_MOTION_DDOT":0},{"OBJECT_NAME":"FENGYUN 1C DEB","OBJECT_ID":"1999-025CSM","EPOCH":"2026-03-02T03:55:46.118208","MEAN_MOTION":14.18059254,"ECCENTRICITY":0.01021605,"INCLINATION":98.6087,"RA_OF_ASC_NODE":40.6449,"ARG_OF_PERICENTER":239.8863,"MEAN_ANOMALY":119.2156,"EPHEMERIS_TYPE":0,"CLASSIFICATION_TYPE":"U","NORAD_CAT_ID":32143,"ELEMENT_SET_NO":999,"REV_AT_EPOCH":97059,"BSTAR":0.00018115629,"MEAN_MOTION_DOT":3.48e-6,"MEAN_MOTION_DDOT":0},{"OBJECT_NAME":"FENGYUN 1C DEB","OBJECT_ID":"1999-025CSU","EPOCH":"2026-02-28T21:34:10.627104","MEAN_MOTION":14.60894482,"ECCENTRICITY":0.0169902,"INCLINATION":99.1871,"RA_OF_ASC_NODE":96.2873,"ARG_OF_PERICENTER":189.9903,"MEAN_ANOMALY":169.7902,"EPHEMERIS_TYPE":0,"CLASSIFICATION_TYPE":"U","NORAD_CAT_ID":32150,"ELEMENT_SET_NO":999,"REV_AT_EPOCH":98847,"BSTAR":0.00017349,"MEAN_MOTION_DOT":9.72e-6,"MEAN_MOTION_DDOT":0},{"OBJECT_NAME":"FENGYUN 1C DEB","OBJECT_ID":"1999-025CSW","EPOCH":"2026-02-16T16:33:42.415200","MEAN_MOTION":14.57876054,"ECCENTRICITY":0.00532996,"INCLINATION":98.7642,"RA_OF_ASC_NODE":217.2685,"ARG_OF_PERICENTER":359.9524,"MEAN_ANOMALY":0.1659,"EPHEMERIS_TYPE":0,"CLASSIFICATION_TYPE":"U","NORAD_CAT_ID":32152,"ELEMENT_SET_NO":999,"REV_AT_EPOCH":63573,"BSTAR":0.0013754464,"MEAN_MOTION_DOT":6.377e-5,"MEAN_MOTION_DDOT":0},{"OBJECT_NAME":"FENGYUN 1C DEB","OBJECT_ID":"1999-025CSX","EPOCH":"2026-02-28T08:08:06.595872","MEAN_MOTION":14.48922316,"ECCENTRICITY":0.0207192,"INCLINATION":98.7672,"RA_OF_ASC_NODE":270.3249,"ARG_OF_PERICENTER":347.633,"MEAN_ANOMALY":11.982,"EPHEMERIS_TYPE":0,"CLASSIFICATION_TYPE":"U","NORAD_CAT_ID":32153,"ELEMENT_SET_NO":999,"REV_AT_EPOCH":98347,"BSTAR":0.00020591838,"MEAN_MOTION_DOT":9.63e-6,"MEAN_MOTION_DDOT":0},{"OBJECT_NAME":"FENGYUN 1C DEB","OBJECT_ID":"1999-025CSZ","EPOCH":"2026-02-13T01:38:06.902880","MEAN_MOTION":14.33150946,"ECCENTRICITY":0.00713061,"INCLINATION":98.9569,"RA_OF_ASC_NODE":340.78,"ARG_OF_PERICENTER":58.0159,"MEAN_ANOMALY":302.7929,"EPHEMERIS_TYPE":0,"CLASSIFICATION_TYPE":"U","NORAD_CAT_ID":32155,"ELEMENT_SET_NO":999,"REV_AT_EPOCH":71115,"BSTAR":0.00052719064,"MEAN_MOTION_DOT":1.442e-5,"MEAN_MOTION_DDOT":0},{"OBJECT_NAME":"FENGYUN 1C DEB","OBJECT_ID":"1999-025CTA","EPOCH":"2026-02-16T17:51:09.029664","MEAN_MOTION":14.32099952,"ECCENTRICITY":0.00812022,"INCLINATION":99.36,"RA_OF_ASC_NODE":227.4706,"ARG_OF_PERICENTER":226.7174,"MEAN_ANOMALY":132.7214,"EPHEMERIS_TYPE":0,"CLASSIFICATION_TYPE":"U","NORAD_CAT_ID":32156,"ELEMENT_SET_NO":999,"REV_AT_EPOCH":65765,"BSTAR":0.00036621801,"MEAN_MOTION_DOT":9.7e-6,"MEAN_MOTION_DDOT":0},{"OBJECT_NAME":"FENGYUN 1C DEB","OBJECT_ID":"1999-025CTE","EPOCH":"2026-03-01T16:09:50.387904","MEAN_MOTION":14.37902027,"ECCENTRICITY":0.00826261,"INCLINATION":98.8897,"RA_OF_ASC_NODE":225.4955,"ARG_OF_PERICENTER":125.4522,"MEAN_ANOMALY":235.4412,"EPHEMERIS_TYPE":0,"CLASSIFICATION_TYPE":"U","NORAD_CAT_ID":32160,"ELEMENT_SET_NO":999,"REV_AT_EPOCH":97021,"BSTAR":0.00062202164,"MEAN_MOTION_DOT":1.906e-5,"MEAN_MOTION_DDOT":0},{"OBJECT_NAME":"FENGYUN 1C DEB","OBJECT_ID":"1999-025CTF","EPOCH":"2026-02-23T12:30:09.451872","MEAN_MOTION":14.01948249,"ECCENTRICITY":0.01356504,"INCLINATION":98.8265,"RA_OF_ASC_NODE":161.8828,"ARG_OF_PERICENTER":77.8518,"MEAN_ANOMALY":283.7807,"EPHEMERIS_TYPE":0,"CLASSIFICATION_TYPE":"U","NORAD_CAT_ID":32161,"ELEMENT_SET_NO":999,"REV_AT_EPOCH":64449,"BSTAR":0.00031070564,"MEAN_MOTION_DOT":4.72e-6,"MEAN_MOTION_DDOT":0},{"OBJECT_NAME":"FENGYUN 1C DEB","OBJECT_ID":"1999-025CTG","EPOCH":"2026-02-24T02:59:45.222144","MEAN_MOTION":14.63136514,"ECCENTRICITY":0.00456265,"INCLINATION":99.4515,"RA_OF_ASC_NODE":115.8591,"ARG_OF_PERICENTER":309.5673,"MEAN_ANOMALY":50.1498,"EPHEMERIS_TYPE":0,"CLASSIFICATION_TYPE":"U","NORAD_CAT_ID":32162,"ELEMENT_SET_NO":999,"REV_AT_EPOCH":95991,"BSTAR":0.0010940756,"MEAN_MOTION_DOT":5.65e-5,"MEAN_MOTION_DDOT":0},{"OBJECT_NAME":"FENGYUN 1C DEB","OBJECT_ID":"1999-025CTH","EPOCH":"2026-02-25T06:26:31.943328","MEAN_MOTION":14.43658692,"ECCENTRICITY":0.0051077,"INCLINATION":99.5461,"RA_OF_ASC_NODE":76.0249,"ARG_OF_PERICENTER":175.6027,"MEAN_ANOMALY":184.5619,"EPHEMERIS_TYPE":0,"CLASSIFICATION_TYPE":"U","NORAD_CAT_ID":32163,"ELEMENT_SET_NO":999,"REV_AT_EPOCH":62051,"BSTAR":0.0006807,"MEAN_MOTION_DOT":2.293e-5,"MEAN_MOTION_DDOT":0},{"OBJECT_NAME":"FENGYUN 1C DEB","OBJECT_ID":"1999-025CTM","EPOCH":"2026-02-12T18:17:36.238272","MEAN_MOTION":14.31192334,"ECCENTRICITY":0.01620723,"INCLINATION":98.481,"RA_OF_ASC_NODE":41.8075,"ARG_OF_PERICENTER":233.6289,"MEAN_ANOMALY":124.9848,"EPHEMERIS_TYPE":0,"CLASSIFICATION_TYPE":"U","NORAD_CAT_ID":32167,"ELEMENT_SET_NO":999,"REV_AT_EPOCH":63562,"BSTAR":0.00030511155,"MEAN_MOTION_DOT":8.83e-6,"MEAN_MOTION_DDOT":0},{"OBJECT_NAME":"FENGYUN 1C DEB","OBJECT_ID":"1999-025CTN","EPOCH":"2026-03-02T01:49:53.695488","MEAN_MOTION":13.86594214,"ECCENTRICITY":0.02371319,"INCLINATION":101.6498,"RA_OF_ASC_NODE":154.4413,"ARG_OF_PERICENTER":43.4376,"MEAN_ANOMALY":318.5189,"EPHEMERIS_TYPE":0,"CLASSIFICATION_TYPE":"U","NORAD_CAT_ID":32168,"ELEMENT_SET_NO":999,"REV_AT_EPOCH":64579,"BSTAR":0.0012531831,"MEAN_MOTION_DOT":1.755e-5,"MEAN_MOTION_DDOT":0},{"OBJECT_NAME":"FENGYUN 1C DEB","OBJECT_ID":"1999-025CTP","EPOCH":"2026-03-02T00:10:33.415680","MEAN_MOTION":14.72396649,"ECCENTRICITY":0.00340817,"INCLINATION":98.5572,"RA_OF_ASC_NODE":258.5353,"ARG_OF_PERICENTER":235.2518,"MEAN_ANOMALY":124.5477,"EPHEMERIS_TYPE":0,"CLASSIFICATION_TYPE":"U","NORAD_CAT_ID":32169,"ELEMENT_SET_NO":999,"REV_AT_EPOCH":97783,"BSTAR":0.00464693,"MEAN_MOTION_DOT":0.00029769,"MEAN_MOTION_DDOT":0},{"OBJECT_NAME":"FENGYUN 1C DEB","OBJECT_ID":"1999-025CTR","EPOCH":"2026-03-01T14:21:39.254400","MEAN_MOTION":13.43260819,"ECCENTRICITY":0.04777185,"INCLINATION":102.8065,"RA_OF_ASC_NODE":344.0049,"ARG_OF_PERICENTER":195.6722,"MEAN_ANOMALY":292.7357,"EPHEMERIS_TYPE":0,"CLASSIFICATION_TYPE":"U","NORAD_CAT_ID":32171,"ELEMENT_SET_NO":999,"REV_AT_EPOCH":61674,"BSTAR":0.0016706603,"MEAN_MOTION_DOT":1.828e-5,"MEAN_MOTION_DDOT":0},{"OBJECT_NAME":"FENGYUN 1C DEB","OBJECT_ID":"1999-025CTU","EPOCH":"2026-03-01T21:11:45.259008","MEAN_MOTION":14.18034979,"ECCENTRICITY":0.0150257,"INCLINATION":98.5876,"RA_OF_ASC_NODE":125.5394,"ARG_OF_PERICENTER":18.548,"MEAN_ANOMALY":342.1092,"EPHEMERIS_TYPE":0,"CLASSIFICATION_TYPE":"U","NORAD_CAT_ID":32174,"ELEMENT_SET_NO":999,"REV_AT_EPOCH":65227,"BSTAR":0.0002509,"MEAN_MOTION_DOT":5.32e-6,"MEAN_MOTION_DDOT":0},{"OBJECT_NAME":"FENGYUN 1C DEB","OBJECT_ID":"1999-025CTV","EPOCH":"2026-03-01T04:38:21.805152","MEAN_MOTION":13.95372652,"ECCENTRICITY":0.0150609,"INCLINATION":98.8315,"RA_OF_ASC_NODE":50.4181,"ARG_OF_PERICENTER":105.8713,"MEAN_ANOMALY":255.9108,"EPHEMERIS_TYPE":0,"CLASSIFICATION_TYPE":"U","NORAD_CAT_ID":32175,"ELEMENT_SET_NO":999,"REV_AT_EPOCH":60934,"BSTAR":0.0024474,"MEAN_MOTION_DOT":3.606e-5,"MEAN_MOTION_DDOT":0},{"OBJECT_NAME":"FENGYUN 1C DEB","OBJECT_ID":"1999-025CTX","EPOCH":"2026-02-16T20:29:54.599424","MEAN_MOTION":14.57184961,"ECCENTRICITY":0.00506562,"INCLINATION":99.0417,"RA_OF_ASC_NODE":67.7276,"ARG_OF_PERICENTER":203.0013,"MEAN_ANOMALY":156.8914,"EPHEMERIS_TYPE":0,"CLASSIFICATION_TYPE":"U","NORAD_CAT_ID":32177,"ELEMENT_SET_NO":999,"REV_AT_EPOCH":72001,"BSTAR":0.0012288869,"MEAN_MOTION_DOT":5.593e-5,"MEAN_MOTION_DDOT":0},{"OBJECT_NAME":"FENGYUN 1C DEB","OBJECT_ID":"1999-025CTY","EPOCH":"2026-02-27T07:03:17.765568","MEAN_MOTION":14.23419093,"ECCENTRICITY":0.0094835,"INCLINATION":100.3036,"RA_OF_ASC_NODE":77.6653,"ARG_OF_PERICENTER":112.8825,"MEAN_ANOMALY":248.2393,"EPHEMERIS_TYPE":0,"CLASSIFICATION_TYPE":"U","NORAD_CAT_ID":32178,"ELEMENT_SET_NO":999,"REV_AT_EPOCH":65092,"BSTAR":0.00095942,"MEAN_MOTION_DOT":2.225e-5,"MEAN_MOTION_DDOT":0},{"OBJECT_NAME":"FENGYUN 1C DEB","OBJECT_ID":"1999-025CTZ","EPOCH":"2026-03-01T21:17:25.174752","MEAN_MOTION":14.0374179,"ECCENTRICITY":0.0144428,"INCLINATION":98.8962,"RA_OF_ASC_NODE":113.1074,"ARG_OF_PERICENTER":329.7198,"MEAN_ANOMALY":205.5071,"EPHEMERIS_TYPE":0,"CLASSIFICATION_TYPE":"U","NORAD_CAT_ID":32179,"ELEMENT_SET_NO":999,"REV_AT_EPOCH":66838,"BSTAR":0.00030227,"MEAN_MOTION_DOT":4.77e-6,"MEAN_MOTION_DDOT":0},{"OBJECT_NAME":"FENGYUN 1C DEB","OBJECT_ID":"1999-025CUA","EPOCH":"2026-03-02T14:43:50.827008","MEAN_MOTION":13.8235024,"ECCENTRICITY":0.0136378,"INCLINATION":99.5732,"RA_OF_ASC_NODE":108.0461,"ARG_OF_PERICENTER":0.7298,"MEAN_ANOMALY":152.413,"EPHEMERIS_TYPE":0,"CLASSIFICATION_TYPE":"U","NORAD_CAT_ID":32180,"ELEMENT_SET_NO":999,"REV_AT_EPOCH":95371,"BSTAR":0.00011033,"MEAN_MOTION_DOT":8.1e-7,"MEAN_MOTION_DDOT":0}]
